{
  "type": "FeatureCollection",
  "features": [
    {
      "type": "Feature",
      "properties": {
        "norad_id": 36371,
        "name": "COSMOS 2251 DEB",
        "group": "cosmos-2251-debris",
        "lat": -12.35569739178523,
        "lon": 165.5612747900779,
        "alt_km": 669.1220717303331,
        "timestamp": "2025-12-08T19:31:49.204198+00:00",
        "meta_object_name": "COSMOS 2251 DEB",
        "meta_object_id": "1993-036AYY",
        "meta_epoch": "2025-12-07T19:05:47.723136",
        "meta_mean_motion": 14.70448722,
        "meta_eccentricity": 0.00102244,
        "meta_inclination": 74.0118,
        "meta_ra_of_asc_node": 171.1395,
        "meta_arg_of_pericenter": 209.6534,
        "meta_mean_anomaly": 150.4058,
        "meta_ephemeris_type": 0,
        "meta_classification_type": "U",
        "meta_norad_cat_id": 36371,
        "meta_element_set_no": 999,
        "meta_rev_at_epoch": 71372,
        "meta_bstar": 0.0029870702,
        "meta_mean_motion_dot": 0.00018131,
        "meta_mean_motion_ddot": 0,
        "tle_line1": "1 36371U 93036AYY 25341.79569124  .00018131  00000+0  29871-2 0  9991",
        "tle_line2": "2 36371  74.0118 171.1395 0010224 209.6534 150.4058 14.70448722713720"
      },
      "geometry": {
        "type": "Point",
        "coordinates": [
          165.5612747900779,
          -12.35569739178523
        ]
      }
    },
    {
      "type": "Feature",
      "properties": {
        "norad_id": 36379,
        "name": "COSMOS 2251 DEB",
        "group": "cosmos-2251-debris",
        "lat": -72.87922323364282,
        "lon": -114.5067863441857,
        "alt_km": 809.6359530241207,
        "timestamp": "2025-12-08T19:31:49.204207+00:00",
        "meta_object_name": "COSMOS 2251 DEB",
        "meta_object_id": "1993-036AZG",
        "meta_epoch": "2025-12-08T04:58:44.675328",
        "meta_mean_motion": 14.36066652,
        "meta_eccentricity": 0.00445661,
        "meta_inclination": 74.0122,
        "meta_ra_of_asc_node": 315.1569,
        "meta_arg_of_pericenter": 85.444,
        "meta_mean_anomaly": 297.6264,
        "meta_ephemeris_type": 0,
        "meta_classification_type": "U",
        "meta_norad_cat_id": 36379,
        "meta_element_set_no": 999,
        "meta_rev_at_epoch": 64763,
        "meta_bstar": 0.0005365522,
        "meta_mean_motion_dot": 1.553e-05,
        "meta_mean_motion_ddot": 0,
        "tle_line1": "1 36379U 93036AZG 25342.20746152  .00001553  00000+0  53655-3 0  9992",
        "tle_line2": "2 36379  74.0122 315.1569 0044566  85.4440 297.6264 14.36066652647637"
      },
      "geometry": {
        "type": "Point",
        "coordinates": [
          -114.5067863441857,
          -72.87922323364282
        ]
      }
    },
    {
      "type": "Feature",
      "properties": {
        "norad_id": 36385,
        "name": "COSMOS 2251 DEB",
        "group": "cosmos-2251-debris",
        "lat": 67.90449644991904,
        "lon": -152.69441917133656,
        "alt_km": 657.2097529870953,
        "timestamp": "2025-12-08T19:31:49.204216+00:00",
        "meta_object_name": "COSMOS 2251 DEB",
        "meta_object_id": "1993-036AZN",
        "meta_epoch": "2025-12-07T21:59:58.241184",
        "meta_mean_motion": 14.72432046,
        "meta_eccentricity": 0.01411609,
        "meta_inclination": 73.9694,
        "meta_ra_of_asc_node": 163.968,
        "meta_arg_of_pericenter": 339.471,
        "meta_mean_anomaly": 20.082,
        "meta_ephemeris_type": 0,
        "meta_classification_type": "U",
        "meta_norad_cat_id": 36385,
        "meta_element_set_no": 999,
        "meta_rev_at_epoch": 85031,
        "meta_bstar": 0.0016431975,
        "meta_mean_motion_dot": 0.00012183,
        "meta_mean_motion_ddot": 0,
        "tle_line1": "1 36385U 93036AZN 25341.91664631  .00012183  00000+0  16432-2 0  9999",
        "tle_line2": "2 36385  73.9694 163.9680 0141160 339.4710  20.0820 14.72432046850310"
      },
      "geometry": {
        "type": "Point",
        "coordinates": [
          -152.69441917133656,
          67.90449644991904
        ]
      }
    },
    {
      "type": "Feature",
      "properties": {
        "norad_id": 36420,
        "name": "COSMOS 2251 DEB",
        "group": "cosmos-2251-debris",
        "lat": 34.216316311240604,
        "lon": 91.47515440822379,
        "alt_km": 774.8643935817927,
        "timestamp": "2025-12-08T19:31:49.204226+00:00",
        "meta_object_name": "COSMOS 2251 DEB",
        "meta_object_id": "1993-036AZT",
        "meta_epoch": "2025-12-07T02:50:10.556736",
        "meta_mean_motion": 14.36891979,
        "meta_eccentricity": 0.0017843,
        "meta_inclination": 74.0373,
        "meta_ra_of_asc_node": 285.8145,
        "meta_arg_of_pericenter": 14.8376,
        "meta_mean_anomaly": 1.703,
        "meta_ephemeris_type": 0,
        "meta_classification_type": "U",
        "meta_norad_cat_id": 36420,
        "meta_element_set_no": 999,
        "meta_rev_at_epoch": 84956,
        "meta_bstar": 0.00028426544,
        "meta_mean_motion_dot": 8.16e-06,
        "meta_mean_motion_ddot": 0,
        "tle_line1": "1 36420U 93036AZT 25341.11817774  .00000816  00000+0  28427-3 0  9997",
        "tle_line2": "2 36420  74.0373 285.8145 0017843  14.8376   1.7030 14.36891979849566"
      },
      "geometry": {
        "type": "Point",
        "coordinates": [
          91.47515440822379,
          34.216316311240604
        ]
      }
    },
    {
      "type": "Feature",
      "properties": {
        "norad_id": 36430,
        "name": "COSMOS 2251 DEB",
        "group": "cosmos-2251-debris",
        "lat": -61.61282720215279,
        "lon": 83.59454153122685,
        "alt_km": 743.7810333150155,
        "timestamp": "2025-12-08T19:31:49.204235+00:00",
        "meta_object_name": "COSMOS 2251 DEB",
        "meta_object_id": "1993-036BAD",
        "meta_epoch": "2025-12-07T15:14:59.696160",
        "meta_mean_motion": 14.27773173,
        "meta_eccentricity": 0.00973352,
        "meta_inclination": 74.0036,
        "meta_ra_of_asc_node": 117.7938,
        "meta_arg_of_pericenter": 268.8676,
        "meta_mean_anomaly": 90.1319,
        "meta_ephemeris_type": 0,
        "meta_classification_type": "U",
        "meta_norad_cat_id": 36430,
        "meta_element_set_no": 999,
        "meta_rev_at_epoch": 64484,
        "meta_bstar": 0.00083938099,
        "meta_mean_motion_dot": 2.154e-05,
        "meta_mean_motion_ddot": 0,
        "tle_line1": "1 36430U 93036BAD 25341.63541315  .00002154  00000+0  83938-3 0  9995",
        "tle_line2": "2 36430  74.0036 117.7938 0097335 268.8676  90.1319 14.27773173644845"
      },
      "geometry": {
        "type": "Point",
        "coordinates": [
          83.59454153122685,
          -61.61282720215279
        ]
      }
    },
    {
      "type": "Feature",
      "properties": {
        "norad_id": 36437,
        "name": "COSMOS 2251 DEB",
        "group": "cosmos-2251-debris",
        "lat": 50.902682415201156,
        "lon": 62.42294735270772,
        "alt_km": 666.8854627579049,
        "timestamp": "2025-12-08T19:31:49.204244+00:00",
        "meta_object_name": "COSMOS 2251 DEB",
        "meta_object_id": "1993-036BAL",
        "meta_epoch": "2025-12-07T10:37:54.930432",
        "meta_mean_motion": 14.70548023,
        "meta_eccentricity": 0.00232535,
        "meta_inclination": 73.9427,
        "meta_ra_of_asc_node": 44.3377,
        "meta_arg_of_pericenter": 275.7564,
        "meta_mean_anomaly": 84.0955,
        "meta_ephemeris_type": 0,
        "meta_classification_type": "U",
        "meta_norad_cat_id": 36437,
        "meta_element_set_no": 999,
        "meta_rev_at_epoch": 65973,
        "meta_bstar": 0.0023397048,
        "meta_mean_motion_dot": 0.00014265,
        "meta_mean_motion_ddot": 0,
        "tle_line1": "1 36437U 93036BAL 25341.44299688  .00014265  00000+0  23397-2 0  9992",
        "tle_line2": "2 36437  73.9427  44.3377 0023253 275.7564  84.0955 14.70548023659731"
      },
      "geometry": {
        "type": "Point",
        "coordinates": [
          62.42294735270772,
          50.902682415201156
        ]
      }
    },
    {
      "type": "Feature",
      "properties": {
        "norad_id": 36439,
        "name": "COSMOS 2251 DEB",
        "group": "cosmos-2251-debris",
        "lat": -73.87545112688788,
        "lon": -41.0245310255624,
        "alt_km": 1151.7007924696627,
        "timestamp": "2025-12-08T19:31:49.204252+00:00",
        "meta_object_name": "COSMOS 2251 DEB",
        "meta_object_id": "1993-036BAN",
        "meta_epoch": "2025-12-06T12:43:47.991648",
        "meta_mean_motion": 13.47777832,
        "meta_eccentricity": 0.04274607,
        "meta_inclination": 73.9681,
        "meta_ra_of_asc_node": 46.625,
        "meta_arg_of_pericenter": 19.776,
        "meta_mean_anomaly": 341.9362,
        "meta_ephemeris_type": 0,
        "meta_classification_type": "U",
        "meta_norad_cat_id": 36439,
        "meta_element_set_no": 999,
        "meta_rev_at_epoch": 58529,
        "meta_bstar": 0.0013215919,
        "meta_mean_motion_dot": 1.402e-05,
        "meta_mean_motion_ddot": 0,
        "tle_line1": "1 36439U 93036BAN 25340.53041657  .00001402  00000+0  13216-2 0  9992",
        "tle_line2": "2 36439  73.9681  46.6250 0427460  19.7760 341.9362 13.47777832585293"
      },
      "geometry": {
        "type": "Point",
        "coordinates": [
          -41.0245310255624,
          -73.87545112688788
        ]
      }
    }
  ]
}